STARLINK-34894          
1 65753U 25216V   26157.05288896  .00027109  00000+0  92346-3 0  9994
2 65753  53.1580 282.3642 0002331  83.8217 276.3050 15.30220217 40049
STARLINK-35287          
1 65754U 25216W   26156.63460971  .00016718  00000+0  57486-3 0  9994
2 65754  53.1596 284.0164 0000938  95.9129 264.1979 15.30224589 39973
STARLINK-35294          
1 65755U 25216X   26156.51137095  .00021729  00000+0  74407-3 0  9990
2 65755  53.1584 284.6710 0000966  87.7803 272.3309 15.30180297 39990
STARLINK-35275          
1 65756U 25216Y   26157.07187644  .00021213  00000+0  72589-3 0  9995
2 65756  53.1611 282.4774 0000498  91.4603 268.6455 15.30217678 40073
STARLINK-35211          
1 65757U 25216Z   26156.21539582  .00020157  00000+0  69132-3 0  9999
2 65757  53.1601 286.3767 0001462  69.9593 290.1565 15.30176837 39945
STARLINK-35313          
1 65758U 25216AA  26157.05814863  .00031989  00000+0  10868-2 0  9997
2 65758  53.1600 282.3928 0001286 247.8960 112.1904 15.30221868 40036
STARLINK-34692          
1 65759U 25216AB  26157.08242528  .00042619  00000+0  14407-2 0  9999
2 65759  53.1604 282.5414 0000492 288.1376  71.9571 15.30249064 40030
STARLINK-34890          
1 65760U 25216AC  26156.62828507  .00024083  00000+0  82231-3 0  9993
2 65760  53.1605 283.9782 0001138 108.4526 251.6598 15.30211613 40007
STARLINK-34889          
1 65761U 25216AD  26157.07820958  .00047456  00000+0  16024-2 0  9991
2 65761  53.1604 282.5170 0001080  99.9637 260.1486 15.30236566 40124
KUIPER-00120            
1 65762U 25217A   26156.86644183  .00001049  00000+0  16655-3 0  9992
2 65762  51.8999  23.1414 0000513 106.5754 253.5264 14.79935141 37798
KUIPER-00132            
1 65763U 25217B   26156.67792025  .00047582  00000+0  10894-2 0  9991
2 65763  51.8571 295.4421 0005966 278.8394  81.1919 15.42297984 38999
KUIPER-00133            
1 65764U 25217C   26156.83268278 -.00000042  00000+0  23493-4 0  9990
2 65764  51.9028  23.3809 0000657 126.1481 233.9542 14.79928948 37796
KUIPER-00139            
1 65765U 25217D   26157.25002315 -.00037294  00000+0 -45938-2 0  9992
2 65765  51.8995 348.8908 0002806 274.3167  28.9698 14.82533086  5304
KUIPER-00142            
1 65766U 25217E   26156.88532343  .00002254  00000+0  32448-3 0  9999
2 65766  51.9001   5.5842 0000573  92.0790 268.0238 14.79938087 38044
KUIPER-00145            
1 65767U 25217F   26156.88262794  .00001873  00000+0  27459-3 0  9992
2 65767  51.9006   8.1144 0000591 106.2666 253.8362 14.79937954 38002
KUIPER-00147            
1 65768U 25217G   26156.84616179  .00001605  00000+0  23942-3 0  9995
2 65768  51.8994  10.7606 0000780 102.6883 257.4166 14.79937203 37964
KUIPER-00148            
1 65769U 25217H   26156.83592777  .00003996  00000+0  60622-3 0  9993
2 65769  51.9061 352.3041 0000947 122.0000 238.1053 14.75951366 38224
KUIPER-00150            
1 65770U 25217J   26156.83538721  .00000978  00000+0  15723-3 0  9993
2 65770  51.9024  20.8351 0000596 119.3096 240.7926 14.79932672 37826
KUIPER-00151            
1 65771U 25217K   26156.84347155  .00001208  00000+0  18746-3 0  9999
2 65771  51.9020  13.2965 0000636 104.0158 256.0875 14.79936272 37930
KUIPER-00152            
1 65772U 25217L   26156.28294508  .00001521  00000+0  22850-3 0  9990
2 65772  51.9014   3.2592 0000642  90.5948 269.5088 14.79937251 38026
KUIPER-00153            
1 65773U 25217M   26155.74810957  .00001024  00000+0  16330-3 0  9997
2 65773  51.9036   0.6957 0000714 120.9121 239.1912 14.79936623 38018
KUIPER-00155            
1 65774U 25217N   26156.18294687  .00002019  00000+0  29376-3 0  9992
2 65774  51.9024 331.2348 0000617  89.2100 270.8933 14.79937206 38461
KUIPER-00156            
1 65775U 25217P   26156.86235039  .00000261  00000+0  63270-4 0  9993
2 65775  51.9048 355.7483 0000629 102.2991 257.8042 14.79931758 38176
KUIPER-00163            
1 65777U 25217R   26157.25002315  .00146529  00000+0  58959-3 0  9993
2 65777  51.8915 322.5673 0004222 271.4307 131.4429 15.85466325  4659
KUIPER-00165            
1 65778U 25217S   26156.31132112  .00001481  00000+0  22317-3 0  9995
2 65778  51.9019   8.1391 0000671 107.9649 252.1386 14.79934891 37958
KUIPER-00166            
1 65779U 25217T   26156.29104515  .00001246  00000+0  19235-3 0  9993
2 65779  51.9034 355.7699 0000577  98.0339 262.0689 14.79935658 38127
KUIPER-00167            
1 65780U 25217U   26156.84075016  .00001321  00000+0  20232-3 0  9992
2 65780  51.8967  15.7243 0000676 100.0732 260.0307 14.79927492 37897
KUIPER-00168            
1 65781U 25217V   26156.85964940  .00001645  00000+0  24470-3 0  9994
2 65781  51.9013 358.2183 0000711  79.3781 280.7261 14.79936699 38147
KUIPER-00169            
1 65782U 25217W   26156.31402079  .00001462  00000+0  22075-3 0  9992
2 65782  51.9015   5.6383 0000529 139.0327 221.0675 14.79934145 37995
KUIPER-00170            
1 65783U 25217X   26157.18643778  .00001794  00000+0  26446-3 0  9996
2 65783  51.9013   6.7479 0000488  89.6320 270.4698 14.79907401 38055
