OBJECT_NAME,OBJECT_ID,EPOCH,MEAN_MOTION,ECCENTRICITY,INCLINATION,RA_OF_ASC_NODE,ARG_OF_PERICENTER,MEAN_ANOMALY,EPHEMERIS_TYPE,CLASSIFICATION_TYPE,NORAD_CAT_ID,ELEMENT_SET_NO,REV_AT_EPOCH,BSTAR,MEAN_MOTION_DOT,MEAN_MOTION_DDOT
STARLINK-34894,2025-216V,2026-06-06T01:16:09.606144,15.30220217,.00023315,53.1580,282.3642,83.8217,276.3050,0,U,65753,999,4004,.92346052E-3,.27109E-3,0
STARLINK-35287,2025-216W,2026-06-05T15:13:50.278944,15.30224589,.00009385,53.1596,284.0164,95.9129,264.1979,0,U,65754,999,3997,.57485929E-3,.16718E-3,0
STARLINK-35294,2025-216X,2026-06-05T12:16:22.450080,15.30180297,.0000966,53.1584,284.6710,87.7803,272.3309,0,U,65755,999,3999,.74406998E-3,.21729E-3,0
STARLINK-35275,2025-216Y,2026-06-06T01:43:30.124416,15.30217678,.0000498,53.1611,282.4774,91.4603,268.6455,0,U,65756,999,4007,.72589153E-3,.21213E-3,0
STARLINK-35211,2025-216Z,2026-06-05T05:10:10.198848,15.30176837,.0001462,53.1601,286.3767,69.9593,290.1565,0,U,65757,999,3994,.69132E-3,.20157E-3,0
STARLINK-35313,2025-216AA,2026-06-06T01:23:44.041632,15.30221868,.00012864,53.1600,282.3928,247.8960,112.1904,0,U,65758,999,4003,.10867803E-2,.31989E-3,0
STARLINK-34692,2025-216AB,2026-06-06T01:58:41.544192,15.30249064,.00004922,53.1604,282.5414,288.1376,71.9571,0,U,65759,999,4003,.14406537E-2,.42619E-3,0
STARLINK-34890,2025-216AC,2026-06-05T15:04:43.830048,15.30211613,.00011381,53.1605,283.9782,108.4526,251.6598,0,U,65760,999,4000,.82231473E-3,.24083E-3,0
STARLINK-34889,2025-216AD,2026-06-06T01:52:37.307712,15.30236566,.00010803,53.1604,282.5170,99.9637,260.1486,0,U,65761,999,4012,.16023669E-2,.47456E-3,0
KUIPER-00120,2025-217A,2026-06-05T20:47:40.574112,14.79935141,.00005131,51.8999,23.1414,106.5754,253.5264,0,U,65762,999,3779,.16655368E-3,.1049E-4,0
KUIPER-00132,2025-217B,2026-06-05T16:16:12.309600,15.42297984,.00059663,51.8571,295.4421,278.8394,81.1919,0,U,65763,999,3899,.10894163E-2,.47582E-3,0
KUIPER-00133,2025-217C,2026-06-05T19:59:03.792192,14.79928948,.0000657,51.9028,23.3809,126.1481,233.9542,0,U,65764,999,3779,.23493E-4,-.42E-6,0
KUIPER-00139,2025-217D,2026-06-06T06:00:02.000160,14.82533086,.00028069,51.8995,348.8908,274.3167,28.9698,0,U,65765,999,530,-.45937733E-2,-.37294E-3,0
KUIPER-00142,2025-217E,2026-06-05T21:14:51.944352,14.79938087,.00005733,51.9001,5.5842,92.0790,268.0238,0,U,65766,999,3804,.32448049E-3,.2254E-4,0
KUIPER-00145,2025-217F,2026-06-05T21:10:59.054016,14.79937954,.00005916,51.9006,8.1144,106.2666,253.8362,0,U,65767,999,3800,.27459384E-3,.1873E-4,0
KUIPER-00147,2025-217G,2026-06-05T20:18:28.378656,14.79937203,.00007808,51.8994,10.7606,102.6883,257.4166,0,U,65768,999,3796,.23942388E-3,.1605E-4,0
KUIPER-00148,2025-217H,2026-06-05T20:03:44.159328,14.75951366,.00009472,51.9061,352.3041,122.0000,238.1053,0,U,65769,999,3822,.60621533E-3,.3996E-4,0
KUIPER-00150,2025-217J,2026-06-05T20:02:57.454944,14.79932672,.00005966,51.9024,20.8351,119.3096,240.7926,0,U,65770,999,3782,.15722957E-3,.978E-5,0
KUIPER-00151,2025-217K,2026-06-05T20:14:35.941920,14.79936272,.00006365,51.9020,13.2965,104.0158,256.0875,0,U,65771,999,3793,.18746266E-3,.1208E-4,0
KUIPER-00152,2025-217L,2026-06-05T06:47:26.454912,14.79937251,.00006429,51.9014,3.2592,90.5948,269.5088,0,U,65772,999,3802,.22849885E-3,.1521E-4,0
KUIPER-00153,2025-217M,2026-06-04T17:57:16.666848,14.79936623,.0000714,51.9036,0.6957,120.9121,239.1912,0,U,65773,999,3801,.1633E-3,.1024E-4,0
KUIPER-00155,2025-217N,2026-06-05T04:23:26.609568,14.79937206,.00006178,51.9024,331.2348,89.2100,270.8933,0,U,65774,999,3846,.29375588E-3,.2019E-4,0
KUIPER-00156,2025-217P,2026-06-05T20:41:47.073696,14.79931758,.00006299,51.9048,355.7483,102.2991,257.8042,0,U,65775,999,3817,.63269727E-4,.261E-5,0
KUIPER-00163,2025-217R,2026-06-06T06:00:02.000160,15.85466325,.00042227,51.8915,322.5673,271.4307,131.4429,0,U,65777,999,465,.58959132E-3,.146529E-2,0
KUIPER-00165,2025-217S,2026-06-05T07:28:18.144768,14.79934891,.00006713,51.9019,8.1391,107.9649,252.1386,0,U,65778,999,3795,.22316952E-3,.1481E-4,0
KUIPER-00166,2025-217T,2026-06-05T06:59:06.300960,14.79935658,.00005779,51.9034,355.7699,98.0339,262.0689,0,U,65779,999,3812,.19234794E-3,.1246E-4,0
KUIPER-00167,2025-217U,2026-06-05T20:10:40.813824,14.79927492,.00006763,51.8967,15.7243,100.0732,260.0307,0,U,65780,999,3789,.20231789E-3,.1321E-4,0
KUIPER-00168,2025-217V,2026-06-05T20:37:53.708160,14.79936699,.00007115,51.9013,358.2183,79.3781,280.7261,0,U,65781,999,3814,.24470008E-3,.1645E-4,0
KUIPER-00169,2025-217W,2026-06-05T07:32:11.396256,14.79934145,.0000529,51.9015,5.6383,139.0327,221.0675,0,U,65782,999,3799,.22075283E-3,.1462E-4,0
KUIPER-00170,2025-217X,2026-06-06T04:28:28.224192,14.79907401,.0000488,51.9013,6.7479,89.6320,270.4698,0,U,65783,999,3805,.26445783E-3,.1794E-4,0
